{
  "type": "FeatureCollection",
  "features": [
    {
      "type": "Feature",
      "properties": {
        "norad_id": 67045,
        "name": "STARLINK-35891",
        "group": "last-30-days",
        "lat": -42.92765418116289,
        "lon": 38.499252263310495,
        "alt_km": 313.1060365696876,
        "timestamp": "2025-12-20T22:39:09.410000+00:00",
        "meta_object_name": "STARLINK-35891",
        "meta_object_id": "2025-294R",
        "meta_epoch": "2025-12-20T14:00:03.000384",
        "meta_mean_motion": 15.8807289,
        "meta_eccentricity": 0.00016815,
        "meta_inclination": 43,
        "meta_ra_of_asc_node": 134.1583,
        "meta_arg_of_pericenter": 272.6695,
        "meta_mean_anomaly": 92.0881,
        "meta_ephemeris_type": 0,
        "meta_classification_type": "U",
        "meta_norad_cat_id": 67045,
        "meta_element_set_no": 999,
        "meta_rev_at_epoch": 149,
        "meta_bstar": -0.0059387333,
        "meta_mean_motion_dot": -0.01455898,
        "meta_mean_motion_ddot": 0,
        "tle_line1": "1 67045U 25294R   25354.58336806 -.01455898  00000+0 -59387-2 0  9997",
        "tle_line2": "2 67045  43.0000 134.1583 0001681 272.6695  92.0881 15.88072890  1499"
      },
      "geometry": {
        "type": "Point",
        "coordinates": [
          38.499252263310495,
          -42.92765418116289
        ]
      }
    },
    {
      "type": "Feature",
      "properties": {
        "norad_id": 67046,
        "name": "STARLINK-35721",
        "group": "last-30-days",
        "lat": -42.97860892700809,
        "lon": 41.583536669943044,
        "alt_km": 313.02607970376084,
        "timestamp": "2025-12-20T22:39:09.410009+00:00",
        "meta_object_name": "STARLINK-35721",
        "meta_object_id": "2025-294S",
        "meta_epoch": "2025-12-20T14:00:03.000384",
        "meta_mean_motion": 15.88109767,
        "meta_eccentricity": 0.0001663,
        "meta_inclination": 43.0002,
        "meta_ra_of_asc_node": 134.1528,
        "meta_arg_of_pericenter": 271.8252,
        "meta_mean_anomaly": 95.1531,
        "meta_ephemeris_type": 0,
        "meta_classification_type": "U",
        "meta_norad_cat_id": 67046,
        "meta_element_set_no": 999,
        "meta_rev_at_epoch": 157,
        "meta_bstar": -0.0059615097,
        "meta_mean_motion_dot": -0.01463058,
        "meta_mean_motion_ddot": 0,
        "tle_line1": "1 67046U 25294S   25354.58336806 -.01463058  00000+0 -59615-2 0  9999",
        "tle_line2": "2 67046  43.0002 134.1528 0001663 271.8252  95.1531 15.88109767  1570"
      },
      "geometry": {
        "type": "Point",
        "coordinates": [
          41.583536669943044,
          -42.97860892700809
        ]
      }
    },
    {
      "type": "Feature",
      "properties": {
        "norad_id": 67047,
        "name": "STARLINK-35779",
        "group": "last-30-days",
        "lat": -42.93711262428904,
        "lon": 45.016981009858995,
        "alt_km": 312.9328929221383,
        "timestamp": "2025-12-20T22:39:09.410018+00:00",
        "meta_object_name": "STARLINK-35779",
        "meta_object_id": "2025-294T",
        "meta_epoch": "2025-12-20T14:00:03.000384",
        "meta_mean_motion": 15.88141901,
        "meta_eccentricity": 0.00016972,
        "meta_inclination": 43,
        "meta_ra_of_asc_node": 134.1469,
        "meta_arg_of_pericenter": 271.3066,
        "meta_mean_anomaly": 98.1564,
        "meta_ephemeris_type": 0,
        "meta_classification_type": "U",
        "meta_norad_cat_id": 67047,
        "meta_element_set_no": 999,
        "meta_rev_at_epoch": 138,
        "meta_bstar": -0.0060013511,
        "meta_mean_motion_dot": -0.01473586,
        "meta_mean_motion_ddot": 0,
        "tle_line1": "1 67047U 25294T   25354.58336806 -.01473586  00000+0 -60014-2 0  9992",
        "tle_line2": "2 67047  43.0000 134.1469 0001697 271.3066  98.1564 15.88141901  1382"
      },
      "geometry": {
        "type": "Point",
        "coordinates": [
          45.016981009858995,
          -42.93711262428904
        ]
      }
    },
    {
      "type": "Feature",
      "properties": {
        "norad_id": 67048,
        "name": "STARLINK-35905",
        "group": "last-30-days",
        "lat": -42.838656084382,
        "lon": 47.58835124635903,
        "alt_km": 312.8405655551451,
        "timestamp": "2025-12-20T22:39:09.410026+00:00",
        "meta_object_name": "STARLINK-35905",
        "meta_object_id": "2025-294U",
        "meta_epoch": "2025-12-20T14:00:03.000384",
        "meta_mean_motion": 15.88178224,
        "meta_eccentricity": 0.00016821,
        "meta_inclination": 43.0001,
        "meta_ra_of_asc_node": 134.1422,
        "meta_arg_of_pericenter": 271.7485,
        "meta_mean_anomaly": 99.5607,
        "meta_ephemeris_type": 0,
        "meta_classification_type": "U",
        "meta_norad_cat_id": 67048,
        "meta_element_set_no": 999,
        "meta_rev_at_epoch": 149,
        "meta_bstar": -0.0059976785,
        "meta_mean_motion_dot": -0.01475132,
        "meta_mean_motion_ddot": 0,
        "tle_line1": "1 67048U 25294U   25354.58336806 -.01475132  00000+0 -59977-2 0  9998",
        "tle_line2": "2 67048  43.0001 134.1422 0001682 271.7485  99.5607 15.88178224  1499"
      },
      "geometry": {
        "type": "Point",
        "coordinates": [
          47.58835124635903,
          -42.838656084382
        ]
      }
    },
    {
      "type": "Feature",
      "properties": {
        "norad_id": 67049,
        "name": "STARLINK-35877",
        "group": "last-30-days",
        "lat": -42.63079560303669,
        "lon": 50.838728269363315,
        "alt_km": 312.70902859870966,
        "timestamp": "2025-12-20T22:39:09.410035+00:00",
        "meta_object_name": "STARLINK-35877",
        "meta_object_id": "2025-294V",
        "meta_epoch": "2025-12-20T14:00:03.000384",
        "meta_mean_motion": 15.88212278,
        "meta_eccentricity": 0.00017429,
        "meta_inclination": 43.0003,
        "meta_ra_of_asc_node": 134.1363,
        "meta_arg_of_pericenter": 273.1437,
        "meta_mean_anomaly": 100.5287,
        "meta_ephemeris_type": 0,
        "meta_classification_type": "U",
        "meta_norad_cat_id": 67049,
        "meta_element_set_no": 999,
        "meta_rev_at_epoch": 157,
        "meta_bstar": -0.0060129204,
        "meta_mean_motion_dot": -0.01480616,
        "meta_mean_motion_ddot": 0,
        "tle_line1": "1 67049U 25294V   25354.58336806 -.01480616  00000+0 -60129-2 0  9993",
        "tle_line2": "2 67049  43.0003 134.1363 0001742 273.1437 100.5287 15.88212278  1570"
      },
      "geometry": {
        "type": "Point",
        "coordinates": [
          50.838728269363315,
          -42.63079560303669
        ]
      }
    },
    {
      "type": "Feature",
      "properties": {
        "norad_id": 67050,
        "name": "STARLINK-36078",
        "group": "last-30-days",
        "lat": -42.32658255464408,
        "lon": 54.10571691074615,
        "alt_km": 312.70760771966434,
        "timestamp": "2025-12-20T22:39:09.410044+00:00",
        "meta_object_name": "STARLINK-36078",
        "meta_object_id": "2025-294W",
        "meta_epoch": "2025-12-20T14:00:03.000384",
        "meta_mean_motion": 15.88249596,
        "meta_eccentricity": 0.00016317,
        "meta_inclination": 43.0003,
        "meta_ra_of_asc_node": 134.1303,
        "meta_arg_of_pericenter": 271.605,
        "meta_mean_anomaly": 104.4624,
        "meta_ephemeris_type": 0,
        "meta_classification_type": "U",
        "meta_norad_cat_id": 67050,
        "meta_element_set_no": 999,
        "meta_rev_at_epoch": 149,
        "meta_bstar": -0.0060667732,
        "meta_mean_motion_dot": -0.015259,
        "meta_mean_motion_ddot": 0,
        "tle_line1": "1 67050U 25294W   25354.58336806 -.01525900  00000+0 -60668-2 0  9999",
        "tle_line2": "2 67050  43.0003 134.1303 0001631 271.6050 104.4624 15.88249596  1499"
      },
      "geometry": {
        "type": "Point",
        "coordinates": [
          54.10571691074615,
          -42.32658255464408
        ]
      }
    },
    {
      "type": "Feature",
      "properties": {
        "norad_id": 67051,
        "name": "STARLINK-35706",
        "group": "last-30-days",
        "lat": -41.92918227106515,
        "lon": 57.34486503910859,
        "alt_km": 312.5990797576278,
        "timestamp": "2025-12-20T22:39:09.410054+00:00",
        "meta_object_name": "STARLINK-35706",
        "meta_object_id": "2025-294X",
        "meta_epoch": "2025-12-20T14:00:03.000384",
        "meta_mean_motion": 15.88279756,
        "meta_eccentricity": 0.00016562,
        "meta_inclination": 43.0004,
        "meta_ra_of_asc_node": 134.124,
        "meta_arg_of_pericenter": 272.9509,
        "meta_mean_anomaly": 105.522,
        "meta_ephemeris_type": 0,
        "meta_classification_type": "U",
        "meta_norad_cat_id": 67051,
        "meta_element_set_no": 999,
        "meta_rev_at_epoch": 157,
        "meta_bstar": -0.006071164,
        "meta_mean_motion_dot": -0.01528952,
        "meta_mean_motion_ddot": 0,
        "tle_line1": "1 67051U 25294X   25354.58336806 -.01528952  00000+0 -60712-2 0  9990",
        "tle_line2": "2 67051  43.0004 134.1240 0001656 272.9509 105.5220 15.88279756  1575"
      },
      "geometry": {
        "type": "Point",
        "coordinates": [
          57.34486503910859,
          -41.92918227106515
        ]
      }
    }
  ]
}